STARLINK-6076           
1 56100U 23046H   23358.86335359  .00008792  00000+0  66483-3 0  9995
2 56100  43.0008 217.6899 0001461 277.2276  82.8400 15.02550359 40849
STARLINK-6095           
1 56101U 23046J   23358.99408057 -.00003899  00000+0 -27348-3 0  9998
2 56101  43.0013 216.9500 0001297 268.3469  91.7224 15.02568019 41407
STARLINK-6075           
1 56102U 23046K   23358.93538261  .00003514  00000+0  27506-3 0  9992
2 56102  43.0013 217.3707 0001354 269.9265  90.1422 15.02541138 40851
STARLINK-6096           
1 56103U 23046L   23359.05723949  .00012712  00000+0  95390-3 0  9992
2 56103  43.0009 216.5632 0001480 272.0707  87.9966 15.02554291 41415
STARLINK-6062           
1 56104U 23046M   23358.99298128  .00000156  00000+0  26642-4 0  9995
2 56104  43.0028 216.9385 0001267 259.0624 101.0076 15.02540860 41408
STARLINK-6066           
1 56105U 23046N   23358.97855057  .00000510  00000+0  52816-4 0  9990
2 56105  43.0013 216.8316 0001241 266.4173  93.6527 15.02539372 41402
STARLINK-6078           
1 56106U 23046P   23359.05168511  .00010905  00000+0  82062-3 0  9997
2 56106  43.0021 216.5183 0001398 274.4089  85.6593 15.02556594 41419
STARLINK-6030           
1 56107U 23046Q   23358.97299816  .00000297  00000+0  37024-4 0  9993
2 56107  43.0022 216.7887 0001191 267.4691  92.6015 15.02543748 41409
STARLINK-6081           
1 56108U 23046R   23359.05390629  .00012286  00000+0  92246-3 0  9995
2 56108  43.0020 216.5366 0001422 272.1995  87.8684 15.02555893 41418
STARLINK-6083           
1 56109U 23046S   23358.84337579  .00004019  00000+0  31235-3 0  9993
2 56109  43.0022 217.5364 0001315 268.3945  91.6746 15.02546438 40846
STARLINK-6082           
1 56110U 23046T   23359.11483648  .00010245  00000+0  77201-3 0  9996
2 56110  43.0011 216.1349 0001278 274.3873  85.6823 15.02552722 41426
STARLINK-6084           
1 56111U 23046U   23358.89542227  .00001696  00000+0  14054-3 0  9997
2 56111  43.0028 217.0647 0001244 266.9205  93.1495 15.02540219 40858
STARLINK-6080           
1 56112U 23046V   23358.83449353  .00000810  00000+0  75035-4 0  9992
2 56112  43.0026 217.4688 0001135 270.8889  89.1823 15.02545398 40849
STARLINK-6113           
1 56113U 23046W   23359.02504555  .00001362  00000+0  11584-3 0  9992
2 56113  43.0016 216.3180 0001191 267.4793  92.5913 15.02545165 41416
STARLINK-6103           
1 56114U 23046X   23358.97077910  .00000839  00000+0  77141-4 0  9996
2 56114  43.0029 216.7692 0001216 260.1282  99.9423 15.02540432 41402
STARLINK-6101           
1 56115U 23046Y   23358.88654494  .00000537  00000+0  54787-4 0  9991
2 56115  43.0042 216.9948 0001248 248.3487 111.7223 15.02540731 40855
STARLINK-6114           
1 56116U 23046Z   23359.09707295  .00002025  00000+0  16486-3 0  9991
2 56116  43.0012 216.0000 0001384 262.2894  97.7791 15.02546133 41420
STARLINK-6107           
1 56117U 23046AA  23358.87471386  .00001027  00000+0  91083-4 0  9994
2 56117  43.0020 204.7972 0001156 265.3012  94.7698 15.02535528 40995
STARLINK-6105           
1 56118U 23046AB  23358.88987303  .00004122  00000+0  31989-3 0  9994
2 56118  43.0017 217.0233 0001319 256.4085 103.6611 15.02552323 40853
STARLINK-6091           
1 56119U 23046AC  23358.88359303  .00002660  00000+0  21184-3 0  9999
2 56119  43.0019 204.8597 0001276 271.9107  88.1589 15.02543729 40998
STARLINK-6079           
1 56120U 23046AD  23358.89247508  .00000092  00000+0  21903-4 0  9992
2 56120  43.0027 204.9270 0001196 266.6920  93.3785 15.02533472 40993
STARLINK-6092           
1 56121U 23046AE  23358.95337905 -.00015542  00000+0 -11355-2 0  9997
2 56121  43.0018 204.5221 0001615 263.0744  96.9915 15.02618190 41544
STARLINK-6094           
1 56122U 23046AF  23358.88543218  .00005705  00000+0  43694-3 0  9996
2 56122  43.0021 216.9896 0001329 270.5682  89.5008 15.02546881 40851
STARLINK-6115           
1 56123U 23046AH  23358.87582121  .00000394  00000+0  44230-4 0  9999
2 56123  43.0021 204.7995 0001153 269.0282  91.0428 15.02544446 40995
STARLINK-6126           
1 56124U 23046AJ  23358.88914566  .00000691  00000+0  66200-4 0  9994
2 56124  43.0022 204.9011 0001125 270.9626  89.1087 15.02536427 40999
STARLINK-6119           
1 56125U 23046AK  23358.87803918  .00001359  00000+0  11565-3 0  9997
2 56125  43.0019 204.8175 0000936 263.9848  96.0887 15.02546108 40995
STARLINK-6124           
1 56126U 23046AL  23358.87249319  .00009107  00000+0  68813-3 0  9994
2 56126  43.0016 204.7754 0001543 277.2873  82.7794 15.02549037 40999
STARLINK-6104           
1 56127U 23046AM  23359.06304752  .00009242  00000+0  69798-3 0  9993
2 56127  43.0016 203.6215 0001322 272.5821  87.4870 15.02554308 41564
STARLINK-6122           
1 56128U 23046AN  23358.88025976  .00000830  00000+0  76459-4 0  9998
2 56128  43.0025 204.8335 0001014 267.1128  92.9599 15.02544008 40990
STARLINK-6121           
1 56129U 23046AP  23358.93556674  .00000768  00000+0  71891-4 0  9994
2 56129  43.0029 152.4885 0001317 272.0722  87.9970 15.02547192 42147
STARLINK-6117           
1 56130U 23046AQ  23358.86916373  .00004077  00000+0  31661-3 0  9991
2 56130  43.0014 204.7500 0000900 240.1954 119.8798 15.02542866 40995
STARLINK-6120           
1 56131U 23046AR  23358.98768681  .00000712  00000+0  67736-4 0  9997
2 56131  43.0025 203.9165 0001133 266.9526  93.1187 15.02545440 41556
STARLINK-6071           
1 56132U 23046AS  23358.93231136  .00011244  00000+0  84569-3 0  9997
2 56132  43.0016 204.3637 0001370 264.1923  95.8763 15.02552861 41004
STARLINK-5566           
1 56133U 23046AT  23358.92342788  .00001103  00000+0  96681-4 0  9995
2 56133  43.0020 204.2959 0001268 264.8960  95.1737 15.02543153 41008
STARLINK-5564           
1 56134U 23046AU  23358.92676160  .00001766  00000+0  14575-3 0  9996
2 56134  43.0017 204.3219 0001444 269.4451  90.6226 15.02543602 41009
STARLINK-5563           
1 56135U 23046AV  23358.88324329  .00002551  00000+0  20384-3 0  9997
2 56135  43.0016 165.7756 0001424 267.9892  92.0787 15.02542773 41449
STARLINK-5489           
1 56136U 23046AW  23358.92454045  .00000331  00000+0  39546-4 0  9997
2 56136  43.0029 204.3016 0001136 270.8067  89.2645 15.02543424 41007
STARLINK-5090           
1 56137U 23046AX  23359.03640425  .00002589  00000+0  20659-3 0  9991
2 56137  43.0023 203.4201 0001345 265.9180  94.1509 15.02549147 41564
STARLINK-4774           
1 56138U 23046AY  23359.05083402  .00003115  00000+0  24545-3 0  9994
2 56138  43.0017 203.5312 0001237 269.0450  91.0251 15.02549767 41565
STARLINK-5378           
1 56139U 23046AZ  23358.90900094  .00003244  00000+0  25511-3 0  9990
2 56139  43.0030 204.1861 0001224 271.4923  88.5779 15.02536822 41008
STARLINK-5375           
1 56140U 23046BA  23358.91566073  .00001991  00000+0  16235-3 0  9998
2 56140  43.0023 204.2363 0001319 272.5324  87.5367 15.02543805 41003
STARLINK-5377           
1 56141U 23046BB  23358.90123184  .00000912  00000+0  82537-4 0  9991
2 56141  43.0030 204.1270 0001329 273.7624  86.3066 15.02541781 41009
STARLINK-5376           
1 56142U 23046BC  23358.91233388  .00000738  00000+0  69692-4 0  9994
2 56142  43.0030 204.2105 0001170 264.5593  95.5115 15.02541390 41008
STARLINK-5016           
1 56143U 23046BD  23358.89457605  .00010705  00000+0  80614-3 0  9993
2 56143  43.0011 204.0767 0001451 278.1978  81.8700 15.02543683 41005
STARLINK-5374           
1 56144U 23046BE  23358.90678318  .00002340  00000+0  18818-3 0  9995
2 56144  43.0019 204.1683 0001422 266.4563  93.6116 15.02543469 41004
STARLINK-5370           
1 56145U 23046BF  23358.87991401  .00000698  00000+0  66718-4 0  9990
2 56145  43.0032 165.7503 0001151 271.1481  88.9229 15.02540274 41445
STARLINK-5111           
1 56146U 23046BG  23358.89789932  .00001181  00000+0  10245-3 0  9998
2 56146  43.0030 204.1016 0001198 280.6698  79.4010 15.02544758 41003
STARLINK-5140           
1 56147U 23046BH  23358.87434939 -.00005166  00000+0 -36746-3 0  9994
2 56147  43.0035 165.7035 0001007 271.0602  89.0125 15.02556006 41441
STARLINK-5089           
1 56148U 23046BJ  23358.87769254  .00000647  00000+0  62975-4 0  9997
2 56148  43.0031 165.7312 0001177 272.7506  87.3202 15.02540042 41984
2023-047A               
1 56153U 23047A   23358.53792937  .00019484  00000+0  10657-2 0  9998
2 56153  97.5015 182.6134 0001633 111.7272 248.4134 15.14303942 40741
2023-047B               
1 56154U 23047B   23358.53793302  .00010463  00000+0  57478-3 0  9997
2 56154  97.4996 182.6150 0001413 110.8506 249.2877 15.14293734 40743
2023-047C               
1 56155U 23047C   23358.53793617  .00009854  00000+0  54160-3 0  9994
2 56155  97.5002 182.6152 0002192  63.6133 296.5324 15.14293068 40743
2023-047D               
1 56156U 23047D   23358.53793162  .00016562  00000+0  90681-3 0  9992
2 56156  97.5012 182.6172 0001738  95.0427 265.1003 15.14301652 40742
2023-048A               
1 56157U 23048A   23359.12984496 -.00000020  00000+0  11818-3 0  9990
2 56157  63.4029 262.7499 0029665 344.2858  15.7245 13.45301391 36172
2023-049A               
1 56159U 23049A   23359.10830854  .00245725  00000+0  24113-2 0  9992
2 56159  97.4249 147.8923 0005203  17.7590 342.3850 15.65268037 41010
CHECKMATE 8             
1 56162U 23050A   23358.85953346  .00000201  00000+0  16961-3 0  9992
2 56162  81.0015 219.8228 0005717 236.5996 123.4614 13.84647305 36842
CHECKMATE 5             
1 56163U 23050B   23359.13791356  .00000157  00000+0  12964-3 0  9995
2 56163  81.0005 219.4999 0005881 233.6385 126.4229 13.84695796 36892
CHECKMATE 4             
1 56164U 23050C   23359.14408466  .00000140  00000+0  11490-3 0  9999
2 56164  81.0010 219.5148 0005082 250.0317 110.0291 13.84587887 36885
CHECKMATE 6             
1 56165U 23050D   23359.12660348  .00000157  00000+0  12980-3 0  9990
2 56165  81.0040 219.5865 0005911 234.2068 125.8539 13.84739685 36821
